start=new Date('2022-04-25T00:00:00.000Z').valueOf();
sats=[{"PERIOD":"95.592","TIME_SYSTEM":"UTC","TLE_LINE1":"1 45770U 20038AS  22114.56408282  .00001308  00000-0  10666-3 0  9995","FILE":"3414344","RA_OF_ASC_NODE":"69.3535","SEMIMAJOR_AXIS":"6925.337","OBJECT_TYPE":"PAYLOAD","REV_AT_EPOCH":"10457","DECAY_DATE":null,"LAUNCH_DATE":"2020-06-13","EPHEMERIS_TYPE":"0","OBJECT_ID":"2020-038AS","TLE_LINE2":"2 45770  53.0566  69.3535 0001740  56.2804 303.8351 15.06403842104571","ECCENTRICITY":"0.00017400","SITE":"AFETR","MEAN_MOTION":"15.06403842","GP_ID":"201941985","BSTAR":"0.00010666000000","NORAD_CAT_ID":"45770","ARG_OF_PERICENTER":"56.2804","CENTER_NAME":"EARTH","RCS_SIZE":"LARGE","REF_FRAME":"TEME","MEAN_MOTION_DDOT":"0.0000000000000","ELEMENT_SET_NO":"999","PERIAPSIS":"545.997","OBJECT_NAME":"STARLINK-1462","MEAN_ELEMENT_THEORY":"SGP4","EPOCH":"2022-04-24T13:32:16.755648","APOAPSIS":"548.407","MEAN_MOTION_DOT":"0.00001308","CLASSIFICATION_TYPE":"U","INCLINATION":"53.0566","MEAN_ANOMALY":"303.8351","COUNTRY_CODE":"US"},{"ECCENTRICITY":"0.00017080","SITE":"AFETR","MEAN_MOTION":"15.06398518","LAUNCH_DATE":"2020-06-13","EPHEMERIS_TYPE":"0","REV_AT_EPOCH":"10341","DECAY_DATE":null,"OBJECT_ID":"2020-038AT","TLE_LINE2":"2 45771  53.0556  70.5935 0001708  62.3324 297.7838 15.06398518103414","RA_OF_ASC_NODE":"70.5935","TLE_LINE1":"1 45771U 20038AT  22114.29227455  .00000462  00000-0  49897-4 0  9996","FILE":"3414186","OBJECT_TYPE":"PAYLOAD","SEMIMAJOR_AXIS":"6925.353","PERIOD":"95.592","TIME_SYSTEM":"UTC","CLASSIFICATION_TYPE":"U","COUNTRY_CODE":"US","MEAN_ANOMALY":"297.7838","INCLINATION":"53.0556","EPOCH":"2022-04-24T07:00:52.521120","MEAN_ELEMENT_THEORY":"SGP4","OBJECT_NAME":"STARLINK-1463","MEAN_MOTION_DOT":"0.00000462","APOAPSIS":"548.401","PERIAPSIS":"546.035","ELEMENT_SET_NO":"999","MEAN_MOTION_DDOT":"0.0000000000000","NORAD_CAT_ID":"45771","ARG_OF_PERICENTER":"62.3324","GP_ID":"201932886","BSTAR":"0.00004989700000","REF_FRAME":"TEME","CENTER_NAME":"EARTH","RCS_SIZE":"LARGE"},{"TLE_LINE2":"2 45772  53.0528  70.3274 0001608  58.4719 301.6427 15.06396901103436","OBJECT_ID":"2020-038AU","LAUNCH_DATE":"2020-06-13","EPHEMERIS_TYPE":"0","DECAY_DATE":null,"REV_AT_EPOCH":"10343","MEAN_MOTION":"15.06396901","SITE":"AFETR","ECCENTRICITY":"0.00016080","TIME_SYSTEM":"UTC","PERIOD":"95.592","OBJECT_TYPE":"PAYLOAD","SEMIMAJOR_AXIS":"6925.358","RA_OF_ASC_NODE":"70.3274","FILE":"3414186","TLE_LINE1":"1 45772U 20038AU  22114.34756510  .00001864  00000-0  14400-3 0  9990","MEAN_MOTION_DOT":"0.00001864","APOAPSIS":"548.337","MEAN_ELEMENT_THEORY":"SGP4","EPOCH":"2022-04-24T08:20:29.624640","OBJECT_NAME":"STARLINK-1470","MEAN_ANOMALY":"301.6427","COUNTRY_CODE":"US","INCLINATION":"53.0528","CLASSIFICATION_TYPE":"U","REF_FRAME":"TEME","RCS_SIZE":"LARGE","CENTER_NAME":"EARTH","ARG_OF_PERICENTER":"58.4719","NORAD_CAT_ID":"45772","BSTAR":"0.00014400000000","GP_ID":"201933136","PERIAPSIS":"546.109","ELEMENT_SET_NO":"999","MEAN_MOTION_DDOT":"0.0000000000000"},{"INCLINATION":"53.0561","COUNTRY_CODE":"US","MEAN_ANOMALY":"310.1202","CLASSIFICATION_TYPE":"U","APOAPSIS":"548.322","MEAN_MOTION_DOT":"-0.00000700","OBJECT_NAME":"STARLINK-1482","MEAN_ELEMENT_THEORY":"SGP4","EPOCH":"2022-04-24T19:18:40.074336","ELEMENT_SET_NO":"999","MEAN_MOTION_DDOT":"0.0000000000000","PERIAPSIS":"546.168","RCS_SIZE":"LARGE","CENTER_NAME":"EARTH","REF_FRAME":"TEME","GP_ID":"201942071","BSTAR":"-0.00002809100000","NORAD_CAT_ID":"45773","ARG_OF_PERICENTER":"49.9923","SITE":"AFETR","MEAN_MOTION":"15.06389739","ECCENTRICITY":"0.00015550","OBJECT_ID":"2020-038AV","TLE_LINE2":"2 45773  53.0561  68.2899 0001555  49.9923 310.1202 15.06389739104467","REV_AT_EPOCH":"10446","DECAY_DATE":null,"LAUNCH_DATE":"2020-06-13","EPHEMERIS_TYPE":"0","SEMIMAJOR_AXIS":"6925.380","OBJECT_TYPE":"PAYLOAD","TLE_LINE1":"1 45773U 20038AV  22114.80463049 -.00000700  00000-0 -28091-4 0  9996","FILE":"3414349","RA_OF_ASC_NODE":"68.2899","TIME_SYSTEM":"UTC","PERIOD":"95.593"},{"EPOCH":"2022-04-24T13:49:34.906080","MEAN_ELEMENT_THEORY":"SGP4","OBJECT_NAME":"STARLINK-1485","MEAN_MOTION_DOT":"0.00000560","APOAPSIS":"548.481","CLASSIFICATION_TYPE":"U","COUNTRY_CODE":"US","MEAN_ANOMALY":"314.3900","INCLINATION":"53.0564","NORAD_CAT_ID":"45774","ARG_OF_PERICENTER":"45.7234","GP_ID":"201942060","BSTAR":"0.00005652900000","REF_FRAME":"TEME","CENTER_NAME":"EARTH","RCS_SIZE":"LARGE","PERIAPSIS":"546.022","ELEMENT_SET_NO":"999","MEAN_MOTION_DDOT":"0.0000000000000","EPHEMERIS_TYPE":"0","LAUNCH_DATE":"2020-06-13","REV_AT_EPOCH":"10458","DECAY_DATE":null,"OBJECT_ID":"2020-038AW","TLE_LINE2":"2 45774  53.0564  69.3091 0001775  45.7234 314.3900 15.06387541104583","ECCENTRICITY":"0.00017750","SITE":"AFETR","MEAN_MOTION":"15.06387541","PERIOD":"95.593","TIME_SYSTEM":"UTC","RA_OF_ASC_NODE":"69.3091","TLE_LINE1":"1 45774U 20038AW  22114.57609845  .00000560  00000-0  56529-4 0  9996","FILE":"3414407","OBJECT_TYPE":"PAYLOAD","SEMIMAJOR_AXIS":"6925.387"},{"RCS_SIZE":"LARGE","CENTER_NAME":"EARTH","REF_FRAME":"TEME","BSTAR":"0.00009154000000","GP_ID":"201939617","ARG_OF_PERICENTER":"58.6256","NORAD_CAT_ID":"45775","MEAN_MOTION_DDOT":"0.0000000000000","ELEMENT_SET_NO":"999","PERIAPSIS":"546.210","APOAPSIS":"548.184","MEAN_MOTION_DOT":"0.00001082","OBJECT_NAME":"STARLINK-1488","EPOCH":"2022-04-24T15:30:24.652224","MEAN_ELEMENT_THEORY":"SGP4","INCLINATION":"53.0558","MEAN_ANOMALY":"301.4872","COUNTRY_CODE":"US","CLASSIFICATION_TYPE":"U","TIME_SYSTEM":"UTC","PERIOD":"95.592","SEMIMAJOR_AXIS":"6925.332","OBJECT_TYPE":"PAYLOAD","TLE_LINE1":"1 45775U 20038AX  22114.64611866  .00001082  00000-0  91540-4 0  9993","FILE":"3414241","RA_OF_ASC_NODE":"68.9996","OBJECT_ID":"2020-038AX","TLE_LINE2":"2 45775  53.0558  68.9996 0001425  58.6256 301.4872 15.06405294104441","REV_AT_EPOCH":"10444","DECAY_DATE":null,"LAUNCH_DATE":"2020-06-13","EPHEMERIS_TYPE":"0","SITE":"AFETR","MEAN_MOTION":"15.06405294","ECCENTRICITY":"0.00014250"},{"GP_ID":"201932637","BSTAR":"0.00000741090000","ARG_OF_PERICENTER":"53.8784","NORAD_CAT_ID":"45776","CENTER_NAME":"EARTH","RCS_SIZE":"LARGE","REF_FRAME":"TEME","ELEMENT_SET_NO":"999","MEAN_MOTION_DDOT":"0.0000000000000","PERIAPSIS":"546.040","OBJECT_NAME":"STARLINK-1489","EPOCH":"2022-04-24T06:07:47.417952","MEAN_ELEMENT_THEORY":"SGP4","APOAPSIS":"548.372","MEAN_MOTION_DOT":"-0.00000171","CLASSIFICATION_TYPE":"U","INCLINATION":"53.0558","MEAN_ANOMALY":"306.2360","COUNTRY_CODE":"US","PERIOD":"95.592","TIME_SYSTEM":"UTC","FILE":"3414186","TLE_LINE1":"1 45776U 20038AY  22114.25540993 -.00000171  00000-0  74109-5 0  9995","RA_OF_ASC_NODE":"70.7384","SEMIMAJOR_AXIS":"6925.341","OBJECT_TYPE":"PAYLOAD","DECAY_DATE":null,"REV_AT_EPOCH":"10342","EPHEMERIS_TYPE":"0","LAUNCH_DATE":"2020-06-13","TLE_LINE2":"2 45776  53.0558  70.7384 0001684  53.8784 306.2360 15.06402473103422","OBJECT_ID":"2020-038AY","ECCENTRICITY":"0.00016840","MEAN_MOTION":"15.06402473","SITE":"AFETR"},{"CLASSIFICATION_TYPE":"U","COUNTRY_CODE":"US","MEAN_ANOMALY":"309.0558","INCLINATION":"53.0557","EPOCH":"2022-04-24T07:38:02.279616","MEAN_ELEMENT_THEORY":"SGP4","OBJECT_NAME":"STARLINK-1490","MEAN_MOTION_DOT":"0.00000121","APOAPSIS":"548.508","PERIAPSIS":"545.957","ELEMENT_SET_NO":"999","MEAN_MOTION_DDOT":"0.0000000000000","ARG_OF_PERICENTER":"51.0595","NORAD_CAT_ID":"45777","BSTAR":"0.00002701600000","GP_ID":"201933888","REF_FRAME":"TEME","RCS_SIZE":"LARGE","CENTER_NAME":"EARTH","ECCENTRICITY":"0.00018420","SITE":"AFETR","MEAN_MOTION":"15.06393778","LAUNCH_DATE":"2020-06-13","EPHEMERIS_TYPE":"0","REV_AT_EPOCH":"10343","DECAY_DATE":null,"OBJECT_ID":"2020-038AZ","TLE_LINE2":"2 45777  53.0557  70.4778 0001842  51.0595 309.0558 15.06393778103430","RA_OF_ASC_NODE":"70.4778","TLE_LINE1":"1 45777U 20038AZ  22114.31808194  .00000121  00000-0  27016-4 0  9991","FILE":"3414186","OBJECT_TYPE":"PAYLOAD","SEMIMAJOR_AXIS":"6925.368","PERIOD":"95.593","TIME_SYSTEM":"UTC"},{"REF_FRAME":"TEME","RCS_SIZE":"LARGE","CENTER_NAME":"EARTH","NORAD_CAT_ID":"45778","ARG_OF_PERICENTER":"70.2815","BSTAR":"0.00003573300000","GP_ID":"201933639","PERIAPSIS":"546.254","ELEMENT_SET_NO":"999","MEAN_MOTION_DDOT":"0.0000000000000","MEAN_MOTION_DOT":"0.00000251","APOAPSIS":"548.185","EPOCH":"2022-04-24T13:33:39.075840","MEAN_ELEMENT_THEORY":"SGP4","OBJECT_NAME":"STARLINK-1491","COUNTRY_CODE":"US","MEAN_ANOMALY":"289.8324","INCLINATION":"53.0551","CLASSIFICATION_TYPE":"U","TIME_SYSTEM":"UTC","PERIOD":"95.592","OBJECT_TYPE":"PAYLOAD","SEMIMAJOR_AXIS":"6925.355","RA_OF_ASC_NODE":"69.3547","TLE_LINE1":"1 45778U 20038BA  22114.56503560  .00000251  00000-0  35733-4 0  9997","FILE":"3414186","OBJECT_ID":"2020-038BA","TLE_LINE2":"2 45778  53.0551  69.3547 0001394  70.2815 289.8324 15.06397997103451","EPHEMERIS_TYPE":"0","LAUNCH_DATE":"2020-06-13","REV_AT_EPOCH":"10345","DECAY_DATE":null,"SITE":"AFETR","MEAN_MOTION":"15.06397997","ECCENTRICITY":"0.00013940"},{"RA_OF_ASC_NODE":"69.3653","TLE_LINE1":"1 45779U 20038BB  22114.56134504  .00006358  00000-0  44528-3 0  9991","FILE":"3414186","OBJECT_TYPE":"PAYLOAD","SEMIMAJOR_AXIS":"6925.323","PERIOD":"95.592","TIME_SYSTEM":"UTC","ECCENTRICITY":"0.00020300","SITE":"AFETR","MEAN_MOTION":"15.06408266","EPHEMERIS_TYPE":"0","LAUNCH_DATE":"2020-06-13","REV_AT_EPOCH":"10345","DECAY_DATE":null,"OBJECT_ID":"2020-038BB","TLE_LINE2":"2 45779  53.0548  69.3653 0002030  51.9108 308.2064 15.06408266103454","PERIAPSIS":"545.782","ELEMENT_SET_NO":"999","MEAN_MOTION_DDOT":"0.0000000000000","ARG_OF_PERICENTER":"51.9108","NORAD_CAT_ID":"45779","GP_ID":"201932887","BSTAR":"0.00044528000000","REF_FRAME":"TEME","CENTER_NAME":"EARTH","RCS_SIZE":"LARGE","CLASSIFICATION_TYPE":"U","MEAN_ANOMALY":"308.2064","COUNTRY_CODE":"US","INCLINATION":"53.0548","MEAN_ELEMENT_THEORY":"SGP4","EPOCH":"2022-04-24T13:28:20.211456","OBJECT_NAME":"STARLINK-1492","MEAN_MOTION_DOT":"0.00006358","APOAPSIS":"548.594"}];
